start=new Date('2022-05-19T00:00:00.000Z').valueOf();
sats=[{"DECAY_DATE":null,"OBJECT_NAME":"STARLINK-2212","MEAN_MOTION_DDOT":"0.0000000000000","TLE_LINE2":"2 47779  53.0541 325.7497 0001228 120.6783 239.4330 15.12534566 68254","ARG_OF_PERICENTER":"120.6783","RA_OF_ASC_NODE":"325.7497","EPOCH":"2022-05-18T19:16:49.228320","ECCENTRICITY":"0.00012280","MEAN_ANOMALY":"239.4330","COUNTRY_CODE":"US","PERIOD":"95.204","TLE_LINE1":"1 47779U 21017BK  22138.80334755 -.00015243  00000-0 -84954-3 0  9996","EPHEMERIS_TYPE":"0","BSTAR":"-0.00084954000000","INCLINATION":"53.0541","CLASSIFICATION_TYPE":"U","OBJECT_ID":"2021-017BK","APOAPSIS":"529.324","LAUNCH_DATE":"2021-03-04","REF_FRAME":"TEME","SEMIMAJOR_AXIS":"6906.611","GP_ID":"203905395","PERIAPSIS":"527.627","MEAN_MOTION_DOT":"-0.00015243","OBJECT_TYPE":"PAYLOAD","SITE":"AFETR","ELEMENT_SET_NO":"999","MEAN_MOTION":"15.12534566","NORAD_CAT_ID":"47779","TIME_SYSTEM":"UTC","RCS_SIZE":"LARGE","REV_AT_EPOCH":"6825","MEAN_ELEMENT_THEORY":"SGP4","FILE":"3452356","CENTER_NAME":"EARTH"},{"CENTER_NAME":"EARTH","MEAN_ELEMENT_THEORY":"SGP4","FILE":"3452169","REV_AT_EPOCH":"6747","NORAD_CAT_ID":"47780","TIME_SYSTEM":"UTC","RCS_SIZE":"LARGE","ELEMENT_SET_NO":"999","MEAN_MOTION":"15.06405130","OBJECT_TYPE":"PAYLOAD","SITE":"AFETR","GP_ID":"203879341","MEAN_MOTION_DOT":"0.00002926","PERIAPSIS":"545.892","LAUNCH_DATE":"2021-03-04","APOAPSIS":"548.504","REF_FRAME":"TEME","SEMIMAJOR_AXIS":"6925.333","INCLINATION":"53.0499","CLASSIFICATION_TYPE":"U","OBJECT_ID":"2021-017BL","BSTAR":"0.00021522000000","EPHEMERIS_TYPE":"0","MEAN_ANOMALY":"303.3574","COUNTRY_CODE":"US","TLE_LINE1":"1 47780U 21017BL  22138.81897461  .00002926  00000-0  21522-3 0  9991","PERIOD":"95.592","EPOCH":"2022-05-18T19:39:19.406304","ECCENTRICITY":"0.00018860","ARG_OF_PERICENTER":"56.7596","RA_OF_ASC_NODE":"335.4813","TLE_LINE2":"2 47780  53.0499 335.4813 0001886  56.7596 303.3574 15.06405130 67470","MEAN_MOTION_DDOT":"0.0000000000000","DECAY_DATE":null,"OBJECT_NAME":"STARLINK-2213"},{"EPOCH":"2022-05-18T22:02:38.164992","ECCENTRICITY":"0.00014630","ARG_OF_PERICENTER":"72.0881","RA_OF_ASC_NODE":"335.0335","MEAN_MOTION_DDOT":"0.0000000000000","TLE_LINE2":"2 47781  53.0542 335.0335 0001463  72.0881 288.0267 15.06397330 67474","DECAY_DATE":null,"OBJECT_NAME":"STARLINK-2223","INCLINATION":"53.0542","CLASSIFICATION_TYPE":"U","OBJECT_ID":"2021-017BM","BSTAR":"0.00011689000000","EPHEMERIS_TYPE":"0","MEAN_ANOMALY":"288.0267","COUNTRY_CODE":"US","TLE_LINE1":"1 47781U 21017BM  22138.91849728  .00001460  00000-0  11689-3 0  9991","PERIOD":"95.592","ELEMENT_SET_NO":"999","MEAN_MOTION":"15.06397330","OBJECT_TYPE":"PAYLOAD","SITE":"AFETR","GP_ID":"203915091","MEAN_MOTION_DOT":"0.00001460","PERIAPSIS":"546.209","APOAPSIS":"548.235","LAUNCH_DATE":"2021-03-04","REF_FRAME":"TEME","SEMIMAJOR_AXIS":"6925.357","CENTER_NAME":"EARTH","MEAN_ELEMENT_THEORY":"SGP4","FILE":"3452621","REV_AT_EPOCH":"6747","NORAD_CAT_ID":"47781","TIME_SYSTEM":"UTC","RCS_SIZE":"LARGE"},{"ELEMENT_SET_NO":"999","MEAN_MOTION":"15.06395181","OBJECT_TYPE":"PAYLOAD","SITE":"AFETR","GP_ID":"203913031","MEAN_MOTION_DOT":"0.00000907","PERIAPSIS":"546.009","APOAPSIS":"548.447","LAUNCH_DATE":"2021-03-11","REF_FRAME":"TEME","SEMIMAJOR_AXIS":"6925.363","CENTER_NAME":"EARTH","MEAN_ELEMENT_THEORY":"SGP4","FILE":"3452556","REV_AT_EPOCH":"6665","NORAD_CAT_ID":"47787","TIME_SYSTEM":"UTC","RCS_SIZE":"LARGE","EPOCH":"2022-05-19T01:40:14.908800","ECCENTRICITY":"0.00017600","ARG_OF_PERICENTER":"59.5208","RA_OF_ASC_NODE":"14.3520","MEAN_MOTION_DDOT":"0.0000000000000","TLE_LINE2":"2 47787  53.0559  14.3520 0001760  59.5208 300.5954 15.06395181 66658","DECAY_DATE":null,"OBJECT_NAME":"STARLINK-2257","INCLINATION":"53.0559","CLASSIFICATION_TYPE":"U","OBJECT_ID":"2021-018A","BSTAR":"0.00007980700000","EPHEMERIS_TYPE":"0","MEAN_ANOMALY":"300.5954","COUNTRY_CODE":"US","PERIOD":"95.592","TLE_LINE1":"1 47787U 21018A   22139.06961700  .00000907  00000-0  79807-4 0  9992"},{"MEAN_MOTION":"15.06393456","ELEMENT_SET_NO":"999","SITE":"AFETR","OBJECT_TYPE":"PAYLOAD","MEAN_MOTION_DOT":"0.00000913","PERIAPSIS":"546.029","GP_ID":"203913002","SEMIMAJOR_AXIS":"6925.369","REF_FRAME":"TEME","LAUNCH_DATE":"2021-03-11","APOAPSIS":"548.439","CENTER_NAME":"EARTH","FILE":"3452554","MEAN_ELEMENT_THEORY":"SGP4","REV_AT_EPOCH":"6700","RCS_SIZE":"LARGE","TIME_SYSTEM":"UTC","NORAD_CAT_ID":"47788","ECCENTRICITY":"0.00017400","EPOCH":"2022-05-19T00:21:17.705664","RA_OF_ASC_NODE":"349.6113","ARG_OF_PERICENTER":"59.8674","MEAN_MOTION_DDOT":"0.0000000000000","TLE_LINE2":"2 47788  53.0559 349.6113 0001740  59.8674 300.2487 15.06393456 67000","OBJECT_NAME":"STARLINK-2314","DECAY_DATE":null,"OBJECT_ID":"2021-018B","CLASSIFICATION_TYPE":"U","INCLINATION":"53.0559","BSTAR":"0.00008023000000","EPHEMERIS_TYPE":"0","PERIOD":"95.593","TLE_LINE1":"1 47788U 21018B   22139.01478826  .00000913  00000-0  80230-4 0  9999","COUNTRY_CODE":"US","MEAN_ANOMALY":"300.2487"},{"MEAN_ANOMALY":"287.0298","PERIOD":"95.592","TLE_LINE1":"1 47789U 21018C   22138.86505348  .00000288  00000-0  38231-4 0  9991","COUNTRY_CODE":"US","EPHEMERIS_TYPE":"0","BSTAR":"0.00003823100000","INCLINATION":"53.0551","OBJECT_ID":"2021-018C","CLASSIFICATION_TYPE":"U","OBJECT_NAME":"STARLINK-2315","DECAY_DATE":null,"TLE_LINE2":"2 47789  53.0551 355.2866 0001444  73.0849 287.0298 15.06400021 66901","MEAN_MOTION_DDOT":"0.0000000000000","ARG_OF_PERICENTER":"73.0849","RA_OF_ASC_NODE":"355.2866","EPOCH":"2022-05-18T20:45:40.620672","ECCENTRICITY":"0.00014440","NORAD_CAT_ID":"47789","RCS_SIZE":"LARGE","TIME_SYSTEM":"UTC","REV_AT_EPOCH":"6690","MEAN_ELEMENT_THEORY":"SGP4","FILE":"3452278","CENTER_NAME":"EARTH","LAUNCH_DATE":"2021-03-11","APOAPSIS":"548.214","SEMIMAJOR_AXIS":"6925.348","REF_FRAME":"TEME","PERIAPSIS":"546.213","MEAN_MOTION_DOT":"0.00000288","GP_ID":"203882115","OBJECT_TYPE":"PAYLOAD","SITE":"AFETR","ELEMENT_SET_NO":"999","MEAN_MOTION":"15.06400021"},{"SITE":"AFETR","OBJECT_TYPE":"PAYLOAD","MEAN_MOTION":"15.06406815","ELEMENT_SET_NO":"999","SEMIMAJOR_AXIS":"6925.328","REF_FRAME":"TEME","APOAPSIS":"548.183","LAUNCH_DATE":"2021-03-11","PERIAPSIS":"546.202","MEAN_MOTION_DOT":"0.00001421","GP_ID":"203913039","FILE":"3452557","MEAN_ELEMENT_THEORY":"SGP4","CENTER_NAME":"EARTH","RCS_SIZE":"LARGE","TIME_SYSTEM":"UTC","NORAD_CAT_ID":"47790","REV_AT_EPOCH":"6706","RA_OF_ASC_NODE":"344.8010","ARG_OF_PERICENTER":"84.3724","ECCENTRICITY":"0.00014300","EPOCH":"2022-05-18T23:20:54.660768","OBJECT_NAME":"STARLINK-2319","DECAY_DATE":null,"TLE_LINE2":"2 47790  53.0551 344.8010 0001430  84.3724 275.7428 15.06406815 67064","MEAN_MOTION_DDOT":"0.0000000000000","BSTAR":"0.00011428000000","OBJECT_ID":"2021-018D","CLASSIFICATION_TYPE":"U","INCLINATION":"53.0551","PERIOD":"95.592","TLE_LINE1":"1 47790U 21018D   22138.97285487  .00001421  00000-0  11428-3 0  9992","COUNTRY_CODE":"US","MEAN_ANOMALY":"275.7428","EPHEMERIS_TYPE":"0"},{"TLE_LINE2":"2 47791  53.0545  15.5961 0001775  63.9794 296.1378 15.06397092 66614","MEAN_MOTION_DDOT":"0.0000000000000","OBJECT_NAME":"STARLINK-2322","DECAY_DATE":null,"ECCENTRICITY":"0.00017750","EPOCH":"2022-05-18T19:02:10.014144","RA_OF_ASC_NODE":"15.5961","ARG_OF_PERICENTER":"63.9794","EPHEMERIS_TYPE":"0","PERIOD":"95.592","TLE_LINE1":"1 47791U 21018E   22138.79317146  .00001538  00000-0  12213-3 0  9993","COUNTRY_CODE":"US","MEAN_ANOMALY":"296.1378","OBJECT_ID":"2021-018E","CLASSIFICATION_TYPE":"U","INCLINATION":"53.0545","BSTAR":"0.00012213000000","MEAN_MOTION_DOT":"0.00001538","PERIAPSIS":"545.993","GP_ID":"203877886","SEMIMAJOR_AXIS":"6925.357","REF_FRAME":"TEME","APOAPSIS":"548.452","LAUNCH_DATE":"2021-03-11","MEAN_MOTION":"15.06397092","ELEMENT_SET_NO":"999","SITE":"AFETR","OBJECT_TYPE":"PAYLOAD","REV_AT_EPOCH":"6661","RCS_SIZE":"LARGE","TIME_SYSTEM":"UTC","NORAD_CAT_ID":"47791","CENTER_NAME":"EARTH","FILE":"3452121","MEAN_ELEMENT_THEORY":"SGP4"},{"FILE":"3452356","MEAN_ELEMENT_THEORY":"SGP4","CENTER_NAME":"EARTH","RCS_SIZE":"LARGE","TIME_SYSTEM":"UTC","NORAD_CAT_ID":"47792","REV_AT_EPOCH":"6723","SITE":"AFETR","OBJECT_TYPE":"PAYLOAD","MEAN_MOTION":"15.06401786","ELEMENT_SET_NO":"999","SEMIMAJOR_AXIS":"6925.343","REF_FRAME":"TEME","LAUNCH_DATE":"2021-03-11","APOAPSIS":"548.272","MEAN_MOTION_DOT":"0.00001739","PERIAPSIS":"546.144","GP_ID":"203905396","BSTAR":"0.00013563000000","OBJECT_ID":"2021-018F","CLASSIFICATION_TYPE":"U","INCLINATION":"53.0552","PERIOD":"95.592","TLE_LINE1":"1 47792U 21018F   22138.73971926  .00001739  00000-0  13563-3 0  9992","COUNTRY_CODE":"US","MEAN_ANOMALY":"303.6461","EPHEMERIS_TYPE":"0","RA_OF_ASC_NODE":"355.8391","ARG_OF_PERICENTER":"56.4674","ECCENTRICITY":"0.00015360","EPOCH":"2022-05-18T17:45:11.744064","OBJECT_NAME":"STARLINK-2334","DECAY_DATE":null,"TLE_LINE2":"2 47792  53.0552 355.8391 0001536  56.4674 303.6461 15.06401786 67231","MEAN_MOTION_DDOT":"0.0000000000000"},{"OBJECT_NAME":"STARLINK-2338","DECAY_DATE":null,"TLE_LINE2":"2 47793  53.0542 355.1862 0001760  63.9460 296.1710 15.06403662 67241","MEAN_MOTION_DDOT":"0.0000000000000","RA_OF_ASC_NODE":"355.1862","ARG_OF_PERICENTER":"63.9460","ECCENTRICITY":"0.00017600","EPOCH":"2022-05-18T21:17:30.959232","TLE_LINE1":"1 47793U 21018G   22138.88716388  .00002882  00000-0  21229-3 0  9996","PERIOD":"95.592","COUNTRY_CODE":"US","MEAN_ANOMALY":"296.1710","EPHEMERIS_TYPE":"0","BSTAR":"0.00021229000000","OBJECT_ID":"2021-018G","CLASSIFICATION_TYPE":"U","INCLINATION":"53.0542","SEMIMAJOR_AXIS":"6925.337","REF_FRAME":"TEME","APOAPSIS":"548.421","LAUNCH_DATE":"2021-03-11","MEAN_MOTION_DOT":"0.00002882","PERIAPSIS":"545.983","GP_ID":"203904145","SITE":"AFETR","OBJECT_TYPE":"PAYLOAD","MEAN_MOTION":"15.06403662","ELEMENT_SET_NO":"999","RCS_SIZE":"LARGE","TIME_SYSTEM":"UTC","NORAD_CAT_ID":"47793","REV_AT_EPOCH":"6724","FILE":"3452356","MEAN_ELEMENT_THEORY":"SGP4","CENTER_NAME":"EARTH"}];
